OBJECT_NAME,OBJECT_ID,EPOCH,MEAN_MOTION,ECCENTRICITY,INCLINATION,RA_OF_ASC_NODE,ARG_OF_PERICENTER,MEAN_ANOMALY,EPHEMERIS_TYPE,CLASSIFICATION_TYPE,NORAD_CAT_ID,ELEMENT_SET_NO,REV_AT_EPOCH,BSTAR,MEAN_MOTION_DOT,MEAN_MOTION_DDOT
DMSP 5D-3 F16 (USA 172),2003-048A,2026-07-20T15:10:08.623200,14.14484664,.00079613,98.9896,225.6804,57.7175,49.6783,0,U,28054,999,17421,-.12333627E-4,-.69E-6,0
METEOSAT-9 (MSG-2),2005-049B,2026-07-20T04:47:30.027840,1.00274969,.00024377,9.4343,53.8381,358.7484,2.9518,0,U,28912,999,733,0,.116E-5,0
DMSP 5D-3 F17 (USA 191),2006-050A,2026-07-20T13:05:20.292000,14.14996354,.00094173,98.7390,207.4344,326.8620,33.1962,0,U,29522,999,1714,.116165E-4,-.21E-6,0
FENGYUN 3A,2008-026A,2026-07-20T19:24:45.465984,14.19577262,.0009454,98.6886,142.0143,37.1178,323.0651,0,U,32958,999,94017,.37299E-4,.35E-6,0
EWS-G3 (GOES 14),2009-033A,2026-07-20T20:32:58.358400,1.00095691,.0002152,1.7744,82.6268,39.1437,246.6058,0,U,35491,999,692,0,-.361E-5,0
DMSP 5D-3 F18 (USA 210),2009-057A,2026-07-20T20:56:15.675360,14.14914320,.0011553,98.9061,182.5724,149.8835,210.3005,0,U,35951,999,86435,.12829E-3,.203E-5,0
EWS-G2 (GOES 15),2010-008A,2026-07-20T19:52:38.682336,1.00269439,.0005446,1.3683,82.4006,53.6582,163.9489,0,U,36411,999,5997,0,.22E-6,0
COMS 1,2010-032A,2026-07-20T11:08:17.286144,0.99166737,.00114442,4.8887,74.9552,15.1250,316.3410,0,U,36744,999,5141,0,-.193E-5,0
FENGYUN 3B,2010-059A,2026-07-20T22:00:26.061984,14.14848096,.0023211,98.9600,248.0713,91.2726,81.4175,0,U,37214,999,81219,-.35328E-5,-.52E-6,0
SUOMI NPP,2011-061A,2026-07-20T19:42:44.797248,14.19523369,.0001031,98.7956,142.4689,188.7147,171.4011,0,U,37849,999,76321,.35626E-4,.31E-6,0
METEOSAT-10 (MSG-3),2012-035B,2026-07-20T19:58:21.012960,1.00272616,.0001426,4.7494,60.8541,18.3366,159.0425,0,U,38552,999,5119,0,-.1E-6,0
METOP-B,2012-049A,2026-07-20T20:04:27.801696,14.21447431,.0001302,98.6485,252.6611,225.3307,134.7765,0,U,38771,999,71804,.38047E-4,.4E-6,0
INSAT-3D,2013-038B,2026-07-20T20:35:13.143264,1.00273635,.0001049,2.0111,82.1164,42.8014,252.0093,0,U,39216,999,4741,0,-.34E-5,0
FENGYUN 3C,2013-052A,2026-07-20T21:30:43.489152,14.15761594,.0013495,98.5004,174.2277,288.3033,71.6674,0,U,39260,999,66333,.56828E-4,.7E-6,0
METEOR-M 2,2014-037A,2026-07-20T20:41:43.872576,14.21469264,.0004781,98.5142,176.4120,307.6251,52.4492,0,U,40069,999,62410,-.76339E-4,-.209E-5,0
HIMAWARI-8,2014-060A,2026-07-20T14:34:38.604864,1.00270174,.0001276,0.0153,53.1610,108.7255,135.8056,0,U,40267,999,4309,0,-.277E-5,0
FENGYUN 2G,2014-090A,2026-07-19T15:21:36.356832,1.00279249,.00039431,5.7192,72.4242,173.6464,21.2039,0,U,40367,999,4232,0,-.309E-5,0
METEOSAT-11 (MSG-4),2015-034A,2026-07-20T20:00:58.261824,1.00273620,.0002023,3.2825,70.8910,355.3658,181.8591,0,U,40732,999,755,0,.6E-6,0
ELEKTRO-L 2,2015-074A,2026-07-20T19:54:13.909824,1.00272327,.0000803,6.7766,70.1096,228.6874,283.8681,0,U,41105,999,3884,0,-.122E-5,0
SENTINEL-3A,2016-011A,2026-07-20T19:24:36.254016,14.26740716,.0001312,98.6232,268.7066,88.8974,271.2357,0,U,41335,999,54285,.28646E-4,.26E-6,0
INSAT-3DR,2016-054A,2026-07-20T18:36:51.330240,1.00271487,.0010345,0.0836,89.1161,180.3820,22.2441,0,U,41752,999,3615,0,-.77E-6,0
HIMAWARI-9,2016-064A,2026-07-20T14:34:38.604864,1.00273013,.0001703,0.0199,292.3424,228.4234,137.0075,0,U,41836,999,3554,0,-.276E-5,0
GOES 16,2016-071A,2026-07-20T16:03:12.909024,1.00271666,.0000652,0.4178,85.4539,74.1871,274.9004,0,U,41866,999,3543,0,-.92E-6,0
FENGYUN 4A,2016-077A,2026-07-20T20:33:35.798112,1.00265639,.0008191,2.4062,79.9026,159.4586,131.3146,0,U,41882,999,3526,0,-.359E-5,0
CYGFM05,2016-078A,2026-07-20T18:26:41.246880,15.58032110,.0005293,34.9574,37.9744,98.7009,261.4315,0,U,41884,999,53399,.22519E-3,.17462E-3,0
CYGFM04,2016-078B,2026-07-20T16:39:11.506752,15.63317465,.0004277,34.9331,4.4017,149.0942,211.0036,0,U,41885,999,53424,.24495E-3,.23318E-3,0
CYGFM02,2016-078C,2026-07-20T16:34:26.292576,15.66648843,.0005032,34.9411,357.9232,150.2375,209.8639,0,U,41886,999,53442,.26335E-3,.28676E-3,0
CYGFM01,2016-078D,2026-07-20T19:20:48.075072,15.58760852,.000515,34.9404,38.5009,91.0871,269.0444,0,U,41887,999,53395,.24942E-3,.19896E-3,0
CYGFM08,2016-078E,2026-07-20T18:27:45.593280,15.61678238,.0005993,34.9439,17.3993,130.9549,229.1696,0,U,41888,999,53422,.24894E-3,.22229E-3,0
CYGFM07,2016-078G,2026-07-20T15:53:41.233920,15.61782712,.0004713,34.9455,6.4248,148.0237,212.0775,0,U,41890,999,53423,.23649E-3,.21192E-3,0
CYGFM03,2016-078H,2026-07-20T16:44:19.953024,15.61770161,.0004345,34.9410,8.1183,130.9389,229.1713,0,U,41891,999,53421,.24109E-3,.21593E-3,0
